[{"OBJECT_NAME":"OBJECT A","OBJECT_ID":"2023-085A","EPOCH":"2026-03-09T21:42:39.504096","MEAN_MOTION":15.28003151,"ECCENTRICITY":0.00073195,"INCLINATION":97.4858,"RA_OF_ASC_NODE":178.2033,"ARG_OF_PERICENTER":32.2499,"MEAN_ANOMALY":327.9186,"EPHEMERIS_TYPE":0,"CLASSIFICATION_TYPE":"U","NORAD_CAT_ID":57004,"ELEMENT_SET_NO":999,"REV_AT_EPOCH":15139,"BSTAR":0.00063583858,"MEAN_MOTION_DOT":0.0001733,"MEAN_MOTION_DDOT":0},{"OBJECT_NAME":"STARLINK-31364","OBJECT_ID":"2024-068J","EPOCH":"2026-03-09T22:37:54.050016","MEAN_MOTION":15.27568214,"ECCENTRICITY":0.0001134,"INCLINATION":43.0044,"RA_OF_ASC_NODE":29.444,"ARG_OF_PERICENTER":289.8415,"MEAN_ANOMALY":70.2315,"EPHEMERIS_TYPE":0,"CLASSIFICATION_TYPE":"U","NORAD_CAT_ID":59463,"ELEMENT_SET_NO":999,"REV_AT_EPOCH":10860,"BSTAR":1.3944955e-5,"MEAN_MOTION_DOT":1.22e-6,"MEAN_MOTION_DDOT":0}]
